FENGYUN 1C DEB          
1 30633U 99025ANQ 17345.72952174  .00000216  00000-0  16907-3 0  9992
2 30633  98.4369  39.7314 0142416 179.0255 302.6436 13.96521987551770
